start=new Date('2022-02-17T00:00:00.000Z').valueOf();
sats=[{"MEAN_ANOMALY":"291.2795","CLASSIFICATION_TYPE":"U","PERIOD":"95.592","EPOCH":"2022-02-16T19:44:50.825472","REF_FRAME":"TEME","OBJECT_TYPE":"PAYLOAD","DECAY_DATE":null,"APOAPSIS":"548.289","ELEMENT_SET_NO":"999","RCS_SIZE":"LARGE","MEAN_MOTION":"15.06399083","REV_AT_EPOCH":"11199","EPHEMERIS_TYPE":"0","CENTER_NAME":"EARTH","TLE_LINE1":"1 45188U 20012L   22047.82281048 -.00000525  00000-0 -16356-4 0  9998","MEAN_MOTION_DOT":"-0.00000525","PERIAPSIS":"546.144","MEAN_MOTION_DDOT":"0.0000000000000","GP_ID":"196130385","INCLINATION":"53.0544","TLE_LINE2":"2 45188  53.0544 178.9861 0001549  68.8360 291.2795 15.06399083111999","TIME_SYSTEM":"UTC","LAUNCH_DATE":"2020-02-17","OBJECT_NAME":"STARLINK-1228","COUNTRY_CODE":"US","SITE":"AFETR","NORAD_CAT_ID":"45188","ECCENTRICITY":"0.00015490","MEAN_ELEMENT_THEORY":"SGP4","RA_OF_ASC_NODE":"178.9861","ARG_OF_PERICENTER":"68.8360","OBJECT_ID":"2020-012L","BSTAR":"-0.00001635600000","FILE":"3302660","SEMIMAJOR_AXIS":"6925.351"},{"GP_ID":"196130136","INCLINATION":"53.0540","LAUNCH_DATE":"2020-02-17","TIME_SYSTEM":"UTC","TLE_LINE2":"2 45189  53.0540 218.7982 0001678  67.7685 292.3482 15.06394720108718","RA_OF_ASC_NODE":"218.7982","MEAN_ELEMENT_THEORY":"SGP4","OBJECT_ID":"2020-012M","ARG_OF_PERICENTER":"67.7685","BSTAR":"0.00005036300000","FILE":"3302660","SEMIMAJOR_AXIS":"6925.365","OBJECT_NAME":"STARLINK-1230","SITE":"AFETR","COUNTRY_CODE":"US","NORAD_CAT_ID":"45189","ECCENTRICITY":"0.00016780","EPOCH":"2022-02-16T20:43:14.868192","OBJECT_TYPE":"PAYLOAD","REF_FRAME":"TEME","APOAPSIS":"548.392","DECAY_DATE":null,"ELEMENT_SET_NO":"999","MEAN_ANOMALY":"292.3482","PERIOD":"95.592","CLASSIFICATION_TYPE":"U","TLE_LINE1":"1 45189U 20012M   22047.86336653  .00000469  00000-0  50363-4 0  9997","PERIAPSIS":"546.068","MEAN_MOTION_DOT":"0.00000469","MEAN_MOTION_DDOT":"0.0000000000000","MEAN_MOTION":"15.06394720","RCS_SIZE":"LARGE","REV_AT_EPOCH":"10871","EPHEMERIS_TYPE":"0","CENTER_NAME":"EARTH"},{"INCLINATION":"53.0535","TIME_SYSTEM":"UTC","LAUNCH_DATE":"2020-02-17","TLE_LINE2":"2 45190  53.0535 178.7174 0002203  43.4185 316.6977 15.06388579111957","GP_ID":"196128884","FILE":"3302660","BSTAR":"0.00005129900000","SEMIMAJOR_AXIS":"6925.384","RA_OF_ASC_NODE":"178.7174","MEAN_ELEMENT_THEORY":"SGP4","ARG_OF_PERICENTER":"43.4185","OBJECT_ID":"2020-012N","COUNTRY_CODE":"US","SITE":"AFETR","NORAD_CAT_ID":"45190","ECCENTRICITY":"0.00022030","OBJECT_NAME":"STARLINK-1234","APOAPSIS":"548.774","DECAY_DATE":null,"ELEMENT_SET_NO":"999","EPOCH":"2022-02-16T21:09:45.887904","OBJECT_TYPE":"PAYLOAD","REF_FRAME":"TEME","PERIOD":"95.593","CLASSIFICATION_TYPE":"U","MEAN_ANOMALY":"316.6977","PERIAPSIS":"545.723","MEAN_MOTION_DOT":"0.00000482","MEAN_MOTION_DDOT":"0.0000000000000","TLE_LINE1":"1 45190U 20012N   22047.88178111  .00000482  00000-0  51299-4 0  9998","EPHEMERIS_TYPE":"0","CENTER_NAME":"EARTH","MEAN_MOTION":"15.06388579","RCS_SIZE":"LARGE","REV_AT_EPOCH":"11195"},{"ELEMENT_SET_NO":"999","APOAPSIS":"548.359","DECAY_DATE":null,"OBJECT_TYPE":"PAYLOAD","REF_FRAME":"TEME","EPOCH":"2022-02-16T20:53:51.202464","PERIOD":"95.592","CLASSIFICATION_TYPE":"U","MEAN_ANOMALY":"290.9498","MEAN_MOTION_DDOT":"0.0000000000000","PERIAPSIS":"546.096","MEAN_MOTION_DOT":"0.00000583","TLE_LINE1":"1 45191U 20012P   22047.87073151  .00000583  00000-0  58072-4 0  9994","CENTER_NAME":"EARTH","EPHEMERIS_TYPE":"0","REV_AT_EPOCH":"10870","RCS_SIZE":"LARGE","MEAN_MOTION":"15.06395433","TIME_SYSTEM":"UTC","LAUNCH_DATE":"2020-02-17","TLE_LINE2":"2 45191  53.0535 218.7571 0001634  69.1666 290.9498 15.06395433108708","INCLINATION":"53.0535","GP_ID":"196129634","SEMIMAJOR_AXIS":"6925.363","BSTAR":"0.00005807200000","FILE":"3302660","OBJECT_ID":"2020-012P","ARG_OF_PERICENTER":"69.1666","RA_OF_ASC_NODE":"218.7571","MEAN_ELEMENT_THEORY":"SGP4","NORAD_CAT_ID":"45191","ECCENTRICITY":"0.00016340","COUNTRY_CODE":"US","SITE":"AFETR","OBJECT_NAME":"STARLINK-1236"},{"ARG_OF_PERICENTER":"69.2448","OBJECT_ID":"2020-012Q","MEAN_ELEMENT_THEORY":"SGP4","RA_OF_ASC_NODE":"219.1699","SEMIMAJOR_AXIS":"6925.355","BSTAR":"0.00002558300000","FILE":"3302660","OBJECT_NAME":"STARLINK-1237","ECCENTRICITY":"0.00016120","NORAD_CAT_ID":"45192","COUNTRY_CODE":"US","SITE":"AFETR","GP_ID":"196129886","TLE_LINE2":"2 45192  53.0530 219.1699 0001612  69.2448 290.8713 15.06397934111481","TIME_SYSTEM":"UTC","LAUNCH_DATE":"2020-02-17","INCLINATION":"53.0530","TLE_LINE1":"1 45192U 20012Q   22047.77858603  .00000100  00000-0  25583-4 0  9993","MEAN_MOTION_DDOT":"0.0000000000000","MEAN_MOTION_DOT":"0.00000100","PERIAPSIS":"546.104","REV_AT_EPOCH":"11148","RCS_SIZE":"LARGE","MEAN_MOTION":"15.06397934","CENTER_NAME":"EARTH","EPHEMERIS_TYPE":"0","REF_FRAME":"TEME","OBJECT_TYPE":"PAYLOAD","EPOCH":"2022-02-16T18:41:09.832992","ELEMENT_SET_NO":"999","DECAY_DATE":null,"APOAPSIS":"548.336","MEAN_ANOMALY":"290.8713","CLASSIFICATION_TYPE":"U","PERIOD":"95.592"},{"ARG_OF_PERICENTER":"65.9805","OBJECT_ID":"2020-012R","RA_OF_ASC_NODE":"219.2237","MEAN_ELEMENT_THEORY":"SGP4","SEMIMAJOR_AXIS":"6925.354","FILE":"3302660","BSTAR":"0.00011534000000","OBJECT_NAME":"STARLINK-1239","ECCENTRICITY":"0.00015860","NORAD_CAT_ID":"45193","COUNTRY_CODE":"US","SITE":"AFETR","GP_ID":"196130636","TIME_SYSTEM":"UTC","LAUNCH_DATE":"2020-02-17","TLE_LINE2":"2 45193  53.0541 219.2237 0001586  65.9805 294.1350 15.06398149111420","INCLINATION":"53.0541","TLE_LINE1":"1 45193U 20012R   22047.76752802  .00001437  00000-0  11534-3 0  9991","MEAN_MOTION_DDOT":"0.0000000000000","PERIAPSIS":"546.121","MEAN_MOTION_DOT":"0.00001437","REV_AT_EPOCH":"11142","RCS_SIZE":"LARGE","MEAN_MOTION":"15.06398149","CENTER_NAME":"EARTH","EPHEMERIS_TYPE":"0","OBJECT_TYPE":"PAYLOAD","REF_FRAME":"TEME","EPOCH":"2022-02-16T18:25:14.420928","ELEMENT_SET_NO":"999","APOAPSIS":"548.318","DECAY_DATE":null,"MEAN_ANOMALY":"294.1350","PERIOD":"95.592","CLASSIFICATION_TYPE":"U"},{"RA_OF_ASC_NODE":"219.2139","MEAN_ELEMENT_THEORY":"SGP4","ARG_OF_PERICENTER":"46.8672","OBJECT_ID":"2020-012S","BSTAR":"0.00035101000000","FILE":"3302660","SEMIMAJOR_AXIS":"6925.284","OBJECT_NAME":"STARLINK-1240","COUNTRY_CODE":"US","SITE":"AFETR","NORAD_CAT_ID":"45194","ECCENTRICITY":"0.00013340","GP_ID":"196129384","INCLINATION":"53.0542","LAUNCH_DATE":"2020-02-17","TIME_SYSTEM":"UTC","TLE_LINE2":"2 45194  53.0542 219.2139 0001334  46.8672 313.2429 15.06421032111376","TLE_LINE1":"1 45194U 20012S   22047.77118581  .00004954  00000-0  35101-3 0  9996","PERIAPSIS":"546.225","MEAN_MOTION_DOT":"0.00004954","MEAN_MOTION_DDOT":"0.0000000000000","MEAN_MOTION":"15.06421032","RCS_SIZE":"LARGE","REV_AT_EPOCH":"11137","EPHEMERIS_TYPE":"0","CENTER_NAME":"EARTH","EPOCH":"2022-02-16T18:30:30.453984","OBJECT_TYPE":"PAYLOAD","REF_FRAME":"TEME","APOAPSIS":"548.073","DECAY_DATE":null,"ELEMENT_SET_NO":"999","MEAN_ANOMALY":"313.2429","PERIOD":"95.591","CLASSIFICATION_TYPE":"U"},{"RA_OF_ASC_NODE":"218.6411","MEAN_ELEMENT_THEORY":"SGP4","ARG_OF_PERICENTER":"57.6205","OBJECT_ID":"2020-012T","BSTAR":"0.00013706000000","FILE":"3302660","SEMIMAJOR_AXIS":"6925.361","OBJECT_NAME":"STARLINK-1241","SITE":"AFETR","COUNTRY_CODE":"US","NORAD_CAT_ID":"45195","ECCENTRICITY":"0.00017160","GP_ID":"196129135","INCLINATION":"53.0533","LAUNCH_DATE":"2020-02-17","TIME_SYSTEM":"UTC","TLE_LINE2":"2 45195  53.0533 218.6411 0001716  57.6205 302.4950 15.06396048111499","TLE_LINE1":"1 45195U 20012T   22047.89653063  .00001760  00000-0  13706-3 0  9998","PERIAPSIS":"546.037","MEAN_MOTION_DOT":"0.00001760","MEAN_MOTION_DDOT":"0.0000000000000","RCS_SIZE":"LARGE","MEAN_MOTION":"15.06396048","REV_AT_EPOCH":"11149","EPHEMERIS_TYPE":"0","CENTER_NAME":"EARTH","EPOCH":"2022-02-16T21:31:00.246432","OBJECT_TYPE":"PAYLOAD","REF_FRAME":"TEME","APOAPSIS":"548.414","DECAY_DATE":null,"ELEMENT_SET_NO":"999","MEAN_ANOMALY":"302.4950","PERIOD":"95.592","CLASSIFICATION_TYPE":"U"},{"EPOCH":"2022-02-16T21:15:05.235264","REF_FRAME":"TEME","OBJECT_TYPE":"PAYLOAD","DECAY_DATE":null,"APOAPSIS":"548.366","ELEMENT_SET_NO":"999","MEAN_ANOMALY":"291.9188","CLASSIFICATION_TYPE":"U","PERIOD":"95.592","TLE_LINE1":"1 45196U 20012U   22047.88547726  .00002310  00000-0  17391-3 0  9992","MEAN_MOTION_DOT":"0.00002310","PERIAPSIS":"546.063","MEAN_MOTION_DDOT":"0.0000000000000","RCS_SIZE":"LARGE","MEAN_MOTION":"15.06399652","REV_AT_EPOCH":"11154","EPHEMERIS_TYPE":"0","CENTER_NAME":"EARTH","GP_ID":"196130386","INCLINATION":"53.0540","TLE_LINE2":"2 45196  53.0540 218.6830 0001663  68.1978 291.9188 15.06399652111543","LAUNCH_DATE":"2020-02-17","TIME_SYSTEM":"UTC","MEAN_ELEMENT_THEORY":"SGP4","RA_OF_ASC_NODE":"218.6830","OBJECT_ID":"2020-012U","ARG_OF_PERICENTER":"68.1978","FILE":"3302660","BSTAR":"0.00017391000000","SEMIMAJOR_AXIS":"6925.350","OBJECT_NAME":"STARLINK-1244","COUNTRY_CODE":"US","SITE":"AFETR","NORAD_CAT_ID":"45196","ECCENTRICITY":"0.00016630"},{"CENTER_NAME":"EARTH","EPHEMERIS_TYPE":"0","REV_AT_EPOCH":"11146","RCS_SIZE":"LARGE","MEAN_MOTION":"15.06393856","MEAN_MOTION_DDOT":"0.0000000000000","PERIAPSIS":"546.095","MEAN_MOTION_DOT":"-0.00000132","TLE_LINE1":"1 45197U 20012V   22047.87442050 -.00000132  00000-0  10061-4 0  9995","PERIOD":"95.593","CLASSIFICATION_TYPE":"U","MEAN_ANOMALY":"291.1269","ELEMENT_SET_NO":"999","APOAPSIS":"548.370","DECAY_DATE":null,"OBJECT_TYPE":"PAYLOAD","REF_FRAME":"TEME","EPOCH":"2022-02-16T20:59:09.931200","ECCENTRICITY":"0.00016430","NORAD_CAT_ID":"45197","COUNTRY_CODE":"US","SITE":"AFETR","OBJECT_NAME":"STARLINK-1269","SEMIMAJOR_AXIS":"6925.367","BSTAR":"0.00001006100000","FILE":"3302660","ARG_OF_PERICENTER":"68.9895","OBJECT_ID":"2020-012V","RA_OF_ASC_NODE":"218.7442","MEAN_ELEMENT_THEORY":"SGP4","TIME_SYSTEM":"UTC","LAUNCH_DATE":"2020-02-17","TLE_LINE2":"2 45197  53.0542 218.7442 0001643  68.9895 291.1269 15.06393856111463","INCLINATION":"53.0542","GP_ID":"196130137"}];
